WGS F9 (USA 275)        
1 42075U 17016A   22002.73093934 -.00000092  00000+0  00000+0 0  9997
2 42075   0.0256  30.5320 0000568  58.8896 264.0637  1.00270335 17590
SES-10                  
1 42432U 17017A   22002.43290557 -.00000267  00000+0  00000+0 0  9996
2 42432   0.0114  15.1144 0002327 256.4704 279.4015  1.00268920 17432
CHINASAT 16 (SJ-13)     
1 42662U 17018A   22002.95977231 -.00000349  00000+0  00000+0 0  9991
2 42662   0.0698  79.0753 0007412 168.3143 311.1994  1.00271663 17435
KOREASAT 7              
1 42691U 17023A   22002.03877685 -.00000355  00000+0  00000+0 0  9997
2 42691   0.0123  15.1551 0001385 302.7507 273.6107  1.00287051 17074
SGDC                    
1 42692U 17023B   22001.92578552 -.00000242  00000+0  00000+0 0  9991
2 42692   0.0228  63.8592 0001835 219.1019  77.0121  1.00271307 17108
GSAT-9                  
1 42695U 17024A   22002.82896646 -.00000282  00000+0  00000+0 0  9996
2 42695   0.0978 268.1655 0002152   2.3724 227.6258  1.00269987 17005
INMARSAT 5-F4           
1 42698U 17025A   22002.74463262  .00000079  00000+0  00000+0 0  9998
2 42698   0.0043  98.8669 0000602 334.0340 354.0181  1.00270730 16952
SES-15                  
1 42709U 17026A   22002.59454242  .00000065  00000+0  00000+0 0  9998
2 42709   0.0184  16.0060 0000215 261.7933 269.2805  1.00269117 17837
QZS-2 (MICHIBIKI-2)     
1 42738U 17028A   22001.76223177 -.00000146  00000+0  00000+0 0  9992
2 42738  42.0489 266.5214 0756649 269.5794 340.1940  1.00282909 16827
VIASAT-2                
1 42740U 17029A   22002.51299285 -.00000260  00000+0  00000+0 0  9990
2 42740   0.0217 297.5898 0000247 192.4609  86.8499  1.00269439 16871
EUTELSAT 172B           
1 42741U 17029B   22002.67780918 -.00000001  00000+0  00000+0 0  9999
2 42741   0.0437 163.9023 0000188 298.1456  56.2352  1.00272503 17416
GSAT-19                 
1 42747U 17031A   22002.94146396  .00000128  00000+0  00000+0 0  9993
2 42747   0.0748  99.0451 0001687 333.2847  56.9847  1.00271448 16839
ECHOSTAR 21             
1 42749U 17032A   22002.59182612  .00000076  00000+0  00000+0 0  9990
2 42749   4.3331 311.1343 0001736 318.1409  56.2418  1.00272450 16803
BULGARIASAT-1           
1 42801U 17038A   22002.73373032  .00000015  00000+0  00000+0 0  9992
2 42801   0.0230  67.6280 0002708 213.1956  87.5491  1.00270758 16512
HELLAS-SAT 3            
1 42814U 17040A   22002.94146396  .00000155  00000+0  00000+0 0  9998
2 42814   0.0502  11.0015 0002777 323.9108 145.5305  1.00269953 16516
GSAT-17                 
1 42815U 17040B   22002.86454942 -.00000255  00000+0  00000+0 0  9991
2 42815   0.0733 274.6140 0006171 345.6409 246.9692  1.00272034 16481
INTELSAT 35E (IS-35E)   
1 42818U 17041A   22002.83243878 -.00000234  00000+0  00000+0 0  9993
2 42818   0.0458 236.9409 0001483  53.2893  77.3813  1.00271881 16500
COSMOS 2520             
1 42907U 17046A   22002.94146395  .00000140  00000+0  00000+0 0  9990
2 42907   0.0402 100.3364 0000447 201.9534 184.1583  1.00270130 16085
TDRS 13                 
1 42915U 17047A   22002.73102656 -.00000092  00000+0  00000+0 0  9996
2 42915   4.7152 332.1696 0013476 105.9893 275.7551  1.00270820 16041
QZS-3 (MICHIBIKI-3)     
1 42917U 17048A   22002.68689409 -.00000344  00000+0  00000+0 0  9999
2 42917   0.0731 148.5345 0001978 146.8630 181.1921  1.00269167 15954
AMAZONAS 5              
1 42934U 17053A   22002.50591608 -.00000277  00000+0  00000+0 0  9993
2 42934   0.0331 325.9527 0003882 336.3890 280.8982  1.00271226 15775
ASIASAT 9               
1 42942U 17057A   22002.39889043 -.00000355  00000+0  00000+0 0  9993
2 42942   0.0248   6.1446 0002432 270.7101  90.8430  1.00269237 15636
INTELSAT 37E (IS-37E)   
1 42950U 17059A   22002.65802483 -.00000136  00000+0  00000+0 0  9993
2 42950   0.0160  70.3423 0002364 208.4956  42.3056  1.00270236 15756
BSAT-4A                 
1 42951U 17059B   22002.86709576 -.00000347  00000+0  00000+0 0  9990
2 42951   0.0625  39.9075 0002442 325.5330 159.0123  1.00269279 15498
QZS-4 (MICHIBIKI-4)     
1 42965U 17062A   22002.53328326 -.00000338  00000+0  00000+0 0  9993
2 42965  40.8019   4.2500 0749884 271.7519 153.6857  1.00248946 15503
SES-11 (ECHOSTAR 105)   
1 42967U 17063A   22002.64066838 -.00000084  00000+0  00000+0 0  9993
2 42967   0.0313 291.7324 0001956 342.8314 313.3646  1.00271197 15416
KOREASAT 5A             
1 42984U 17067A   22002.82766446 -.00000355  00000+0  00000+0 0  9999
2 42984   0.0318  85.5156 0001263 163.5679 264.4482  1.00271614 15222
ALCOMSAT 1              
1 43039U 17078A   22002.92410603 -.00000183  00000+0  00000+0 0  9994
2 43039   0.0458 180.8782 0002615  97.3282 132.2009  1.00270441 14974
SBIRS GEO-3 (USA 282)   
1 43162U 18009A   22002.68933619 -.00000283  00000+0  00000+0 0  9997
2 43162   3.8604 318.0748 0001898 315.8987 215.4813  1.00270399 14535
AL YAH 3                
1 43174U 18012A   22002.72936941 -.00000151  00000+0  00000+0 0  9994
2 43174   0.0148 336.0466 0001697 302.1254  66.6317  1.00270841 14537
SES-14                  
1 43175U 18012B   22002.86743601 -.00000275  00000+0  00000+0 0  9996
2 43175   0.0114 354.7688 0000770 273.6328  98.8378  1.00271419 14759
GOES 17                 
1 43226U 18022A   22002.63421424  .00000102  00000+0  00000+0 0  9993
2 43226   0.0577 228.9302 0000234  39.9337 284.4594  1.00270567 14118
HISPASAT 30W-6          
1 43228U 18023A   22002.37549333 -.00000210  00000+0  00000+0 0  9998
2 43228   0.0383  39.0861 0003227 273.1004 254.9809  1.00271892 14139
SUPERBIRD 8             
1 43271U 18033A   22002.65341796 -.00000088  00000+0  00000+0 0  9994
2 43271   0.0331 267.8031 0000853  39.3385 192.3256  1.00271085 13747
HYLAS 4                 
1 43272U 18033B   22002.72666566 -.00000229  00000+0  00000+0 0  9995
2 43272   0.0538 235.8593 0001183  59.9102  34.6526  1.00270729 13761
IRNSS-1I                
1 43286U 18035A   21364.82642957  .00000086  00000+0  00000+0 0  9991
2 43286  28.7065 100.1112 0022722 185.5517 166.3646  1.00275789 13731
USA 283                 
1 43339U 18036A   21363.59730047 -.00000299  00000+0  00000+0 0  9999
2 43339   0.0202 128.1686 0000845 257.8087  61.4087  1.00269757  2391
COSMOS 2526             
1 43432U 18037A   22002.62802781 -.00000340  00000+0  00000+0 0  9991
2 43432   0.0279  89.4262 0001155 198.2835 168.6640  1.00269581 13664
APSTAR 6C               
1 43450U 18041A   22002.34395991 -.00000313  00000+0  00000+0 0  9995
2 43450   0.0193 257.7171 0002389   9.2579  92.7945  1.00268257 13523
BANGABANDHUSAT-1        
1 43463U 18044A   22002.90066619 -.00000359  00000+0  00000+0 0  9996
2 43463   0.0182  51.7570 0001402 240.3172 253.7594  1.00270904 13400
SES-12                  
1 43488U 18049A   22002.81438355 -.00000266  00000+0  00000+0 0  9995
2 43488   0.0183  42.1156 0002116 228.7826 219.6909  1.00270055 13117
FENGYUN 2H              
1 43491U 18050A   22002.74908074 -.00000122  00000+0  00000+0 0  9994
2 43491   0.7335 101.2302 0003213  40.7134 309.1094  1.00267473 13121
BEIDOU IGSO-7           
1 43539U 18057A   22002.89927069 -.00000075  00000+0  00000+0 0  9992
2 43539  55.0656 177.1725 0040234 220.4039 141.2263  1.00260693 12858
TELSTAR 19V             
1 43562U 18059A   22002.21843569 -.00000273  00000+0  00000+0 0  9998
2 43562   0.0206  70.7594 0001473 126.6132 280.0799  1.00275706 12846
TELKOM 4 (MERAH PUTIH)  
1 43587U 18064A   22002.86575308 -.00000341  00000+0  00000+0 0  9991
2 43587   0.0167  77.4312 0001240 238.5813 206.1115  1.00269905 12566
TELSTAR 18V (APSTAR 5C) 
1 43611U 18069A   22002.60761250 -.00000290  00000+0  00000+0 0  9992
2 43611   0.0048  94.8129 0001641 189.6897 174.4405  1.00270132 12321
AZERSPACE 2 (IS-38)     
1 43632U 18074A   22002.94146396  .00000140  00000+0  00000+0 0  9999
2 43632   0.0040 105.0913 0001094 180.9298 200.5425  1.00269909 12168
HORIZONS 3E             
1 43633U 18074B   22001.67123552 -.00000022  00000+0  00000+0 0  9998
2 43633   0.0183 199.5743 0000132 123.4924 188.8733  1.00271433 12026
AEHF-4 (USA 288)        
1 43651U 18079A   22002.48938469 -.00000265  00000+0  00000+0 0  9993
2 43651   2.7469 314.5036 0003407 330.4433 285.7200  1.00265402 11988
BEIDOU-3 G1             
1 43683U 18085A   22002.68951064 -.00000275  00000+0  00000+0 0  9994
2 43683   0.8479 196.3715 0004156  55.6052 238.5449  1.00267284 11743
GSAT-29                 
1 43698U 18089A   22002.60080962  .00000090  00000+0  00000+0 0  9990
2 43698   0.0417  98.2900 0003302 170.1472 105.1135  1.00269281 11470
ES'HAIL 2               
1 43700U 18090A   22002.90674237  .00000147  00000+0  00000+0 0  9996
2 43700   0.0274  42.4173 0001769 275.7919 136.5119  1.00270484 11377
GEO-KOMPSAT-2A          
1 43823U 18100A   22002.62802781 -.00000340  00000+0  00000+0 0  9996
2 43823   0.0416 131.7618 0000475 301.8707  22.9348  1.00271228 11319
GSAT-11                 
1 43824U 18100B   22002.93035260 -.00000073  00000+0  00000+0 0  9994
2 43824   0.0884 274.5419 0003171 180.6870  56.1700  1.00271559 11200
GSAT-7A                 
1 43864U 18105A   22002.93590955  .00000029  00000+0  00000+0 0  9990
2 43864   0.0952  99.4530 0001866 166.1978 236.6069  1.00270422 11161
COSMOS 2533             
1 43867U 18107A   22002.53199435 -.00000034  00000+0  00000+0 0  9996
2 43867   0.0542 104.1349 0000578 225.0176  34.5061  1.00271870 11126
TJS-3                   
1 43874U 18110A   22002.96890406  .00000060  00000+0  00000+0 0  9999
2 43874   0.0175  83.6398 0002268 222.4534 204.2676  1.00268043 11113
TJS-3 AKM               
1 43917U 18110C   22002.69840691 -.00000157  00000+0  00000+0 0  9996
2 43917   0.4381 117.8674 0006239   6.5625  53.8886  0.98351442 11040
CHINASAT 2D (ZX 2D)     
1 43920U 19001A   22001.95689392 -.00000330  00000+0  00000+0 0  9990
2 43920   0.0344 237.1346 0001492 149.4572 189.4650  1.00270325 11033
